ELFIN-A                 
1 43617U 18070E   21091.45073543  .00009603  00000-0  21044-3 0  9993
2 43617  93.0249 274.8246 0011580 303.7370  56.2783 15.44022136142906
CUBEBEL-1 (BSUSAT-1)    
1 43666U 18083E   21091.52614633  .00001786  00000-0  88121-4 0  9994
2 43666  97.4630 120.8431 0016469  79.0985  78.1656 15.19090166134334
CICERO 10               
1 43690U 18088A   21091.41123414  .00001790  00000-0  78849-4 0  9997
2 43690  85.0358 248.4718 0013696 341.7010  18.3736 15.20993769132496
IRVINE01                
1 43693U 18088D   21090.87683951  .00004533  00000-0  18015-3 0  9992
2 43693  85.0333 246.4784 0015186 316.5081  43.4964 15.24908853132617
PROXIMA I               
1 43694U 18088E   21091.40288832  .00001914  00000-0  80096-4 0  9991
2 43694  85.0304 246.2823 0016978 308.3056  51.6659 15.22725261132642
PROXIMA II              
1 43696U 18088G   21090.87532253  .00001819  00000-0  76060-4 0  9992
2 43696  85.0305 246.6392 0017079 310.3495  49.6255 15.22721547132566
FACSAT-1                
1 43721U 18096C   21091.48444984  .00002610  00000-0  96540-4 0  9996
2 43721  97.3893 169.2174 0016933 178.5375 277.9918 15.28475367130360
CENTAURI-2              
1 43722U 18096D   21090.96747169  .00003998  00000-0  14212-3 0  9995
2 43722  97.3911 169.3514 0016891 179.4988 180.6272 15.29453901130313
INNOSAT-2               
1 43738U 18096V   21091.06192421  .00005561  00000-0  17733-3 0  9998
2 43738  97.3951 172.7724 0021961 183.0751 260.8030 15.32704445130542
SIRION PATHFINDER-2     
1 43759U 18099B   21090.91207644 -.00000068  00000-0 -98648-6 0  9997
2 43759  97.6705 163.1622 0013030 306.3143  53.6875 14.95462780126898
CORVUS BC4              
1 43767U 18099K   21091.22862709  .00000126  00000-0  16775-4 0  9992
2 43767  97.6682 162.5574 0010501 311.6108  48.4212 14.94895030126894
MOVE-II                 
1 43780U 18099Y   21091.15091539  .00001218  00000-0  11418-3 0  9995
2 43780  97.6729 163.4747 0012088 318.0025  42.0268 14.95807169126915
SPACEBEE-7              
1 43816U 18099BL  21090.77211055  .00000207  00000-0  23508-4 0  9990
2 43816  97.6743 163.6602 0011964 301.5699  58.4354 14.96029375126440
SPACEBEE-5              
1 43817U 18099BM  21091.17181672  .00001286  00000-0  11640-3 0  9998
2 43817  97.6828 165.0934 0011427 298.8798  61.1276 14.97108016126547
SPACEBEE-6              
1 43818U 18099BN  21091.15586245  .00001388  00000-0  12763-3 0  9992
2 43818  97.6769 164.3557 0011566 299.5617  60.4451 14.96359168126662
SHIELDS 1               
1 43850U 18104B   21091.19448292  .00000931  00000-0  39099-4 0  9993
2 43850  85.0319 345.0666 0017129  92.2499 268.0704 15.21775523127222
STF-1                   
1 43852U 18104D   21090.79286105  .00001943  00000-0  82673-4 0  9993
2 43852  85.0358 345.9974 0016524 105.6461 254.6606 15.22177892127143
ZACUBE-2                
1 43907U 18111AH  21091.50430645  .00000954  00000-0  40762-4 0  9996
2 43907  97.2416 348.2057 0020451 201.0914 284.4324 15.25057921125903
LUME 1                  
1 43908U 18111AJ  21090.95808592  .00001865  00000-0  75024-4 0  9996
2 43908  97.2415 348.1254 0019835 201.6014 158.4390 15.25955574125850
AOBA VELOX-IV           
1 43940U 19003J   21090.91330687  .00003873  00000-0  14951-3 0  9996
2 43940  97.1876 137.9095 0021031 285.5890  74.3028 15.26652622122475
CATSAT-2                
1 44029U 98067PV  21090.73596305  .00383033  76530-4  60432-3 0  9992
2 44029  51.6354 278.5339 0006809 258.7135 101.0764 16.03260009123806
DELPHINI                
1 44030U 98067PW  21073.20127863  .06612467  12175-4  91963-3 0  9996
2 44030  51.6130   1.9822 0006321 224.0789 135.9732 16.34207165121093
UNITE                   
1 44031U 98067PX  21091.01087780  .00038775  00000-0  28631-3 0  9999
2 44031  51.6368 303.7999 0001650 111.7144 248.4030 15.72586833123469
CATSAT-1                
1 44033U 98067PZ  21090.73647798  .00389537  78573-4  62346-3 0  9990
2 44033  51.6400 278.5318 0008210 244.2749 116.0913 16.02995906123711
RAAVANA-1               
1 44329U 98067QE  21090.88689333  .00039616  00000-0  32185-3 0  9999
2 44329  51.6353 323.3270 0002673   1.1280 358.9723 15.70295785101948
UGUISU                  
1 44330U 98067QF  21090.92743704  .00038996  00000-0  32101-3 0  9997
2 44330  51.6328 323.5238 0002699   0.3803 359.7196 15.69985522101922
NEPALISAT-1             
1 44331U 98067QG  21090.87943392  .00039768  00000-0  32366-3 0  9998
2 44331  51.6332 323.2028 0002662   6.0572 354.0457 15.70250791101932
SPOOQY-1                
1 44332U 98067QH  21090.92531133  .00038932  00000-0  32423-3 0  9997
2 44332  51.6340 323.5397 0002197  12.6825 347.4228 15.69705752101898
SPACEBEE-9              
1 44370U 19037F   21090.89984002  .00028935  00000-0  45977-3 0  9992
2 44370  45.0017 299.9797 0007614 131.0083 229.1469 15.52831679 99113
SPACEBEE-8              
1 44371U 19037G   21090.96181036  .00312379  00000-0  15241-2 0  9995
2 44371  44.9968 269.8527 0012045 272.7498  87.2026 15.80651787 99451
IOD-1 GEMS              
1 44385U 98067QK  21090.98445985  .01848963  32774-2  13340-2 0  9995
2 44385  51.6226 302.7750 0012020 265.1889  94.7755 16.15811070 99685
MOVE-IIB                
1 44398U 19038N   21091.48678443  .00002217  00000-0  12729-3 0  9992
2 44398  97.5743  55.8886 0023405 212.0822 147.8987 15.13363807 96125
SONATE                  
1 44400U 19038Q   21090.38043434  .00000804  00000-0  49865-4 0  9992
2 44400  97.5805  54.7194 0023820 216.3681 143.5921 15.12414895 95931
LUCKY-7                 
1 44406U 19038W   21090.86719604  .00001039  00000-0  62663-4 0  9992
2 44406  97.5816  55.4168 0023299 212.8894 147.0888 15.12784549 96012
BEESAT 9                
1 44412U 19038AC  21091.36486829  .00001622  00000-0  95083-4 0  9995
2 44412  97.5801  55.9174 0021154 216.4430 143.5362 15.13057927 95795
JAISAT-1                
1 44419U 19038F   21091.16094568  .00001598  00000-0  92556-4 0  9999
2 44419  97.5804  56.2007 0020049 215.3201 144.6703 15.13541309 96109
SWIATOWID               
1 44426U 98067QL  21073.23590850  .07171462  12074-4  12707-2 0  9990
2 44426  51.6198  29.3922 0007231 188.0333 310.3019 16.31812792 96965
KRAKSAT                 
1 44427U 98067QM  21091.21959697  .00020429  00000-0  21780-3 0  9990
2 44427  51.6430 332.2083 0001546 300.2758 157.1997 15.63938538 99372
VCC A                   
1 44428U 98067QN  21090.91780149  .00036211  00000-0  31363-3 0  9995
2 44428  51.6370 326.6069 0000962 299.6460  60.4441 15.68788220 99421
ENTRYSAT                
1 44429U 98067QP  21091.23949774  .00066008  00000-0  45394-3 0  9999
2 44429  51.6307 318.8728 0001470 252.4196 107.6642 15.74023346 99554
VCC C                   
1 44430U 98067QQ  21091.02918791  .00176993  00000-0  71193-3 0  9994
2 44430  51.6278 311.3974 0003481 238.7462 121.3201 15.85379840 98458
VCC B                   
1 44431U 98067QR  21090.89418196  .00036517  00000-0  31203-3 0  9998
2 44431  51.6342 326.3772 0001058 301.1127  58.9766 15.69113879 99366
DUCHIFAT-3              
1 44854U 19089C   21091.48136833  .00000843  00000-0  73896-4 0  9993
2 44854  36.9650 195.8001 0008449 244.9096 115.0754 14.99403603 71548
EYESAT-NANO             
1 44877U 19092E   21090.96023395  .00002002  00000-0  10230-3 0  9993
2 44877  97.4596 275.7151 0014830  98.6829 261.6085 15.17742016 71187
ORBITAL FACTORY 2 (OF-2)
1 45113U 19071C   21091.28235121  .00005336  00000-0  16453-3 0  9998
2 45113  51.6433  51.5294 0012481  17.7938 342.3480 15.35188147 65317
M2 PATHFINDER           
1 45727U 20037E   21090.45463401  .00000716  00000-0  77218-4 0  9999
2 45727  97.7093 269.9786 0014170  67.6930 292.5796 14.91345390 40792
NETSAT-4                
1 46504U 20068U   21090.35963263  .00000962  00000-0  77883-4 0  9998
2 46504  97.6861  27.8935 0010533  30.1394 330.0433 15.02043972 27518
NETSAT-3                
1 46505U 20068V   21090.36436874  .00001207  00000-0  96704-4 0  9999
2 46505  97.6846  27.8755 0009161  28.5187 331.6534 15.02001185 27528
NETSAT-1                
1 46506U 20068W   21090.36914077  .00001430  00000-0  11384-3 0  9994
2 46506  97.6808  27.8582 0007578  26.8839 333.2770 15.01958974 27526
NETSAT-2                
1 46507U 20068X   21090.37149140  .00001446  00000-0  11517-3 0  9992
2 46507  97.6798  27.8618 0007212  25.0931 335.0613 15.01930898 27479
SPOC                    
1 46921U 98067RR  21091.20936961  .00012042  00000-0  19728-3 0  9990
2 46921  51.6436   0.8151 0002749 137.9378 222.1824 15.52912739 22845
BOBCAT-1                
1 46922U 98067RS  21091.03539563  .00014170  00000-0  22227-3 0  9991
2 46922  51.6443   1.1619 0002538 139.1136 221.0045 15.53955934 22780
NEUTRON-1               
1 46923U 98067RT  21091.34755789  .00011613  00000-0  19129-3 0  9992
2 46923  51.6436   0.2362 0002539 148.9050 211.2090 15.52799994 22896
1998-067RU              
1 46924U 98067RU  21091.14834895  .00029182  00000-0  41724-3 0  9993
2 46924  51.6419 359.6548 0002303 170.4407 189.6628 15.55977852 22844
DESCENT                 
1 46927U 98067RX  21091.15830149  .00011821  00000-0  19477-3 0  9996
2 46927  51.6436   1.2205 0002388 167.5322 192.5727 15.52771746 22778
